{"type":"FeatureCollection","features":[{"type":"Feature","geometry":{"type":"Polygon","coordinates":[[[-83.7213751624828,33.9951984380696],[-83.7213749675484,33.9951979420467],[-83.7213745776795,33.9951969790471],[-83.7213596521711,33.9951612817711],[-83.7213589999942,33.9951597959359],[-83.721343248934,33.9951243429321],[-83.7213425967571,33.9951228839084],[-83.7213260524845,33.9950877027339],[-83.7213254973256,33.9950865468351],[-83.7213253347306,33.9950862161526],[-83.7213079640079,33.9950512799958],[-83.7213054810645,33.9950466817208],[-83.7213052187564,33.9950462683676],[-83.7212171092984,33.9948979086972],[-83.7212151779206,33.9948948238107],[-83.721132819477,33.9947697599456],[-83.7211319678741,33.9947684930698],[-83.72113042906,33.9947663443708],[-83.7210100979311,33.994602643143],[-83.7210094753986,33.9946018432445],[-83.7209944025664,33.9945818651442],[-83.7209931251621,33.9945802117223],[-83.7209927640394,33.994579770065],[-83.7209769644701,33.9945601740341],[-83.7209755217758,33.9945584096389],[-83.7209591257252,33.9945391688654],[-83.7209574854015,33.9945372942416],[-83.7209404605303,33.9945184630953],[-83.7209401649845,33.9945181592229],[-83.7209386890525,33.9945165609139],[-83.7209210012246,33.9944981386501],[-83.7209192620862,33.9944964010659],[-83.7209009786752,33.9944783891745],[-83.7209001252757,33.9944775341607],[-83.7208991074845,33.9944765964757],[-83.7208801943545,33.9944590225142],[-83.7208783887408,33.9944573668556],[-83.7208589132654,33.9944402300794],[-83.7208579287118,33.9944394026222],[-83.7208446579001,33.9944280602775],[-83.7208753542317,33.9944003601932],[-83.7208756533707,33.9944000861119],[-83.7209572374665,33.9943256610823],[-83.7212939996969,33.9945850662284],[-83.7214603128902,33.9947125762343],[-83.7216814430789,33.994882028457],[-83.7217095953816,33.9949055442003],[-83.7216677590422,33.9949435362555],[-83.7216672290361,33.9949440293008],[-83.7216508500536,33.9949592764652],[-83.7216505859489,33.9949594961757],[-83.7216125243303,33.9949948919001],[-83.7215238363572,33.9950773443304],[-83.7215235390149,33.9950775901079],[-83.7215226110552,33.9950784935264],[-83.7213822933095,33.9952165734416],[-83.7213751624828,33.9951984380696]]]},"properties":{"_clli":"WNDRGAXA","_parcel_id":"WN12   293","_county":"Barrow","_state":"GA","_source":"https://services5.arcgis.com/OVFGXfRTCVcPwl55/arcgis/rest/services/Barrow_Parcels_w_Owner/FeatureServer/0","_acres_gis":"0.6408","_acres_stated":"","OBJECTID":16852,"Parcel_no":"WN12   293","Comments":" ","Map_no":"WN12","Shape_Leng":843.80967356,"Flag":" ","Shape_Le_1":843.810117039,"Realkey":" ","OID_1":8992,"PARCEL_NO_1":"WN12   293","lastname":"CSL GEORGIA SYSTEM LLC","address1":"10802 EXECUTIVE CENTER DR","address2":"\"BENTON BLDG., SUITE 300                 \"","address3":" ","city":"LITTLE ROCK","state":"AR","zip":"72211","Shape__Area":27837.784912109375,"Shape__Length":843.810066726275}},{"type":"Feature","geometry":{"type":"Polygon","coordinates":[[[-85.3483481644034,34.48166004038],[-85.3486669912044,34.4812307770464],[-85.3490127163098,34.4813944687745],[-85.3488122362512,34.481693369831],[-85.3487052817993,34.481829798835],[-85.3483481644034,34.48166004038]]]},"properties":{"_clli":"SUVLGAXA","_parcel_id":"S27-009","_county":"Chattooga","_state":"GA","_source":"https://services9.arcgis.com/eXIsbyIncFwEzqul/arcgis/rest/services/parcels_zoning/FeatureServer/2","_acres_gis":"0.5211","_acres_stated":"0.519853599","OBJECTID_1":8229,"MAP_PAR":"S27-009","MAP_NO_":"00S2700000009000","ACRES":0.51985359902,"REALKEY_1":11888,"HOUSE_NO":0,"STREET_NAM":"COX STREET","PARCEL_NO":"00S2700000009","parcel_address":"0 COX ST","yr_built":null,"GlobalID":"7b056082-ccfb-41de-8936-7811df32f75c","Shape__Area":22644.818603515625,"Shape__Length":611.1985903469996,"zoningcode":"C-1","CreationDate":1714423508419,"Creator":"svillegis","EditDate":1755008627045,"Editor":"svillegis","HistoricDistrict":"Yes"}},{"type":"Feature","geometry":{"type":"Polygon","coordinates":[[[-84.4904077356089,34.2361994426065],[-84.4904246410446,34.2360259700445],[-84.490821172869,34.2360636970643],[-84.490804521985,34.2362343110575],[-84.4904077356089,34.2361994426065]]]},"properties":{"_clli":"CNTNGAXA","_parcel_id":"14-0166-0003","_county":"Cherokee","_state":"GA","_source":"https://services6.arcgis.com/dpaY3zboICQILFY5/arcgis/rest/services/Property_Value_TY2024/FeatureServer/0","_acres_gis":"0.1743","_acres_stated":"1","OBJECTID":6357,"ParcelType":0,"Map":"9116","SubMap":" ","Block":"  ","Parcel":"064","ParcelSuffix":"   ","Lot":"31","Tract":null,"TIN":"91N16   064   ","TINNoSpace":"91N16064","LandDistrict":"14","LandLot":"0166","UniqueID":"0003","PIN":"14-0166-0003","Subdivision":null,"Acreage":1,"YearCreated":null,"PlatBook":null,"PlatPage":null,"HistoricCard":null,"Temp1":"91N16","TaxYear":null,"Zoning":"CITY","AnnoScale":3600,"Owner":"CSL GEORGIA SYSTEM LLC","Mailing_Address":"10802 EXECUTIVE CENTER DR","Mailing_City":"LITTLE ROCK","Mailing_State":"AR","Mailing_Zip":"72211","DEEDBOOK":"13332","DEEDPAGE":"00204","CURR_VAL":null,"Property_Address":"190 S Church St","Property_City":"Canton","Property_Zip":30114,"TaxDistric":"3B","OBJECTID_1":11391,"parcel_no":"91N16      064","PARCEL_NO2":"14-0166-0003","digclass":"U","taxdistric_1":null,"TOTAL_VAL_24TY":2,"LAND_VALUE_24TY":1,"HISTORIC_VAL_24TY":0,"CUVA_VAL_24TY":"NIL","CUVA_EXEMPT_VAL_24TY":"NIL","RES_VAL_24TY":0,"COM_VAL_24TY":1,"OBXF_VAL_24TY":0,"TOTAL_VAL_23TY":2,"LAND_VALUE_23TY":1,"CUVA_VAL_23TY":"NIL","CUVA_EXEMPT_VAL_23TY":"NIL","HISTORIC_VAL_23TY":0,"RES_VAL_23TY":0,"COM_VAL_23TY":1,"OBXF_VAL_23TY":0,"Percent_Change":"0%","PropertyReal_ID":464805,"Real_ID_Link":"https://property.spatialest.com/ga/cherokee/#/property/464805","Tax_Link":"https://cherokeecountyga.governmentwindow.com/select-map-code.html?mode=&lang=&map_code=91N16     064   ","Shape__Area":7572.404541015625,"Shape__Length":366.841387876713,"GlobalID":"d6435aaa-0eaf-40e4-ad60-6c4521f91527"}},{"type":"Feature","geometry":{"type":"Polygon","coordinates":[[[-83.4592580578263,34.2037317089315],[-83.4594662110857,34.2038386637559],[-83.4596490483296,34.2039326105752],[-83.4595184953706,34.204111073164],[-83.4593356578934,34.2040171261498],[-83.4591415688286,34.203917397137],[-83.4589981119416,34.203843684311],[-83.4591286644722,34.2036652231722],[-83.4592580578263,34.2037317089315]]]},"properties":{"_clli":"CMRCGAXA","_parcel_id":"C14    049","_county":"Jackson","_state":"GA","_source":"https://services8.arcgis.com/bcbi4lYRFOsss0F5/ArcGIS/rest/services/jackson_baselayers/FeatureServer/9","_acres_gis":"0.3236","_acres_stated":"0.39","OBJECTID":378806,"tax_id":"C14    049","GlobalID":"23ca1b81-6793-4ec4-b03f-0e286e2a672a","EDIT_DATE":1626652800000,"REALKEY":15013,"acre_calc":0.32276466,"OWNKEY":117513,"HOUSE_NO":45,"STREET_NAM":"LITTLE STREET","LANDGMD":"255","PARCEL_NO":"C14    049","LEGAL_DESC":"1/3 ACRE S OF LITTLE ST, WEST OF ATLANTA AVE","TAXDISTRIC":"02","HOMEEXEMPT":"S0","DIGCLASS":"E","DIGSTRAT":"1","ACC":0,"DESIRE":"A","TOTALACRES":0.39,"NEIGHBHOOD":"77777","ZIP":"72211","FMVRES":0,"FMVCOM":251700,"FMVACC":4100,"LASTNAME":"CSL GEORGIA SYSTEM LLC","ADDRESS1":" ","ADDRESS2":"10802 EXECUTIVE CENTER DR","ADDRESS3":"BENTON BLDG/SUITE 300","CITY":"LITTLE ROCK","STATE":"AR","TAXDISTR":"02","MAPID":"C14","PIN":"049","COMMENTS":"Steve Cumblidge","REFERENCE":"ESTIMATED PER DEED","Shape__Area":1914.55859375,"Shape__Length":192.54750048565035}},{"type":"Feature","geometry":{"type":"Polygon","coordinates":[[[-83.9826874831027,34.5353513078448],[-83.9826821202663,34.5355244722784],[-83.9826761735586,34.5359471850788],[-83.9823042844317,34.535940097986],[-83.9818551920016,34.5359335799292],[-83.9819912411478,34.5356002597432],[-83.9820105557185,34.5354999898051],[-83.9820199101504,34.5353990187309],[-83.9820161826341,34.5352073472693],[-83.9822838592087,34.5350380681321],[-83.9824706751492,34.5350266687664],[-83.9824755101981,34.5351937649805],[-83.9826812549798,34.5351814084558],[-83.9826874831027,34.5353513078448]]]},"properties":{"_clli":"DHLNGAXA","_parcel_id":"D10    049","_county":"Lumpkin","_state":"GA","_source":"https://services6.arcgis.com/BAJNi3EgCdtQ1BCG/arcgis/rest/services/Lumpkin_2025Parcels/FeatureServer/0","_acres_gis":"1.4647","_acres_stated":"1.46092","FID":17540,"FID_1":16382,"PARCEL_NO":"D10    049","OWNKEY":24650,"ADDRESS1":"P O BOX 400","ADDRESS2":"NULL","ADDRESS3":"NULL","CITY":"CORNELIA","STATE":"GA","ZIP":30531,"HOUSE_NO":10,"STREET_NAM":"GOUDLOCK STREET","UNIT":" ","LANDLOT":984,"LANDDIST":12,"ZONINGCODE":"B2","LEGAL_DESC":"LL 984 LD 12-1","TOTALACRES":1.42,"TaxDist":2,"GIS_ACRES":1.46092,"FID_2":4,"OBJECTID_1":16,"OBJECTID":4,"AREA":0.059572527393,"PERIMETER":1.241928813,"ZIPCODES20":49,"ZIPCODES_1":48,"ZCTA":"30533","NAME":"30533","LSAD":"Z5","LSAD_TRANS":"5-Digit ZCTA","Shape_Leng":1.24192880998,"Shape_Le_1":428633.644866,"Shape_Le_2":586805.434556,"LABL":"DAHLONEGA","TAXDISTNAM":"CITY","CUVA_2020":" ","REALKEY":9505,"PARCEL_N_1":"D10    049","DIGCLASS":"U","DIGSTRAT":"2","parcel_n_2":" ","lastname":" ","firstname":" ","Shape__Area":8734.90234375,"Shape__Length":399.7124218845892}},{"type":"Feature","geometry":{"type":"Polygon","coordinates":[[[-84.96602637829804,34.67557845073379],[-84.96604788136473,34.67557863515753],[-84.9661072439844,34.675579145532886],[-84.96648693371596,34.675583055349044],[-84.96661497772563,34.675584054153525],[-84.96661850538892,34.675283977921374],[-84.9666276796885,34.67450359717294],[-84.96662962853632,34.674337791193366],[-84.96663367465175,34.67399358441831],[-84.96653757561445,34.6739928132249],[-84.96602967514418,34.673988733774124],[-84.96602862678877,34.674494496011725],[-84.96602651938258,34.67551057025763],[-84.96602637829804,34.67557845073379]]]},"properties":{"_clli":"DLTNGAXD","_parcel_id":"","_county":"Whitfield","_state":"GA","_source":"https://gis.whitfieldcountyga.com/server/rest/services/Parcels_and_Development/MapServer/4","_acres_gis":"2.388","_acres_stated":"5.01","OBJECTID_1":42085,"totalacres":5.01,"PARCEL_FUL":"90-099-02-000","Zoning":"Heavy Manufacturing (M-2)","house_no":350,"extension":"   ","stdirect":"  ","sttype":"BLVD","street_nam":"CROSSPLAINS              ","unit":"    ","legal_desc":"CROSS PLAINS PROP ST APP                     ","taxdistric":"06","lastname":"CSL GEORGIA SYSTEM LLC                  ","address1":"1082 EXECUTIVEENTER DRIVE               ","address2":"BENTON BLDG SUITE 300                   ","address3":"                                        ","city":"LITTLE ROCK         ","state":"AR","zip":"72211     ","Res_Imp":null,"Comm_Imp":null,"ACC_Imp":null,"land_value":0,"descrip":"County                        ","land_type":3,"SubDetails":"https://gis.whitfieldcountyga.com/GIS/WCGIS/parceldetail.asp?txtrealkey=31639&Submit=Search+Now"}},{"type":"Feature","geometry":{"type":"Polygon","coordinates":[[[-79.4272648970147,35.1345104098942],[-79.4276864917885,35.1346979905431],[-79.4272530989318,35.1354506156291],[-79.4266294558027,35.1347674245564],[-79.426820312988,35.1344865645588],[-79.4270810389674,35.1346139354946],[-79.4272027668467,35.1345454160581],[-79.4272648970147,35.1345104098942]]]},"properties":{"_clli":"ABRDNCXA","_parcel_id":"8.57013E+11","_county":"Moore","_state":"NC","_source":"https://services7.arcgis.com/WOKJvFrknOcT2chj/arcgis/rest/services/Accela_taxparcels/FeatureServer/0","_acres_gis":"1.3423","_acres_stated":"1.338","FID":47886,"OBJECTID":48212,"LRK":55098,"PIN":"857013243207","NBHD":"930","TAXJURIS":"AB","TOWNSHIP":"09","CITY_CODE":"AB","CLASS":"UT","NAME":"CSL NORTH CAROLINA SYSTEM, LP","NAME2":" ","ADDRESS":"2101 RIVERFRONT DR  #A","ADDRESS2":" ","CITY":"LITTLE ROCK","STATE":"AR","ZIP":"72202","DEED_ACRES":0,"CALC_ACRES":1.338,"TAX_ACRES":1.338,"TOTAL_VAL":413970,"BUILD_VAL":103830,"LANDVALUE":310140,"STAMP_VAL":0,"PROP_DESC":"POPLAR STREET","DEED_BOOK":"4490","DEED_PAGE":"442","TRANSDATE":1431907200000,"YEARBUILT":0,"PARID":"00055098","PARID8":"00055098","GRADE":" ","CDU":" ","TOTLVGAREA":0,"SALE_VALID":"DJ","ModifyDate":null,"VALID_SALE":null,"LAND_STAT":" ","PROPNUM":"211","PROPDIR":"N","PROPST":"POPLAR ST","SHAPESTAre":58321.84096198233,"SHAPESTLen":1031.5375599898816,"Shape__Area":8122.05859375,"Shape__Length":385.114350199109}},{"type":"Feature","geometry":{"type":"Polygon","coordinates":[[[-80.59591098669243,35.557101162520695],[-80.59591455766461,35.55710218182181],[-80.59597059068778,35.557075584490214],[-80.59602873405547,35.557047984423114],[-80.59608688391441,35.55702038245313],[-80.59614330288532,35.556993601073096],[-80.59614500768105,35.55699279153127],[-80.5959253542095,35.5566835585345],[-80.59588316882575,35.55662417560553],[-80.59584098294069,35.55656476404508],[-80.59537549575278,35.5567851239291],[-80.59539264515382,35.556809342977296],[-80.5954176814115,35.556844535647805],[-80.59543490143733,35.556868782385685],[-80.59545990271327,35.55690397550686],[-80.59551806614617,35.55687639152063],[-80.59569262849611,35.556793752937224],[-80.59591098669243,35.557101162520695]]]},"properties":{"_clli":"CHGVNCXA","_parcel_id":"163 012","_county":"Rowan","_state":"NC","_source":"https://gis.rowancountync.gov/arcgis/rest/services/Public/RowanTaxParcels/MapServer/0","_acres_gis":"0.4238","_acres_stated":"0.42","DEEDACRE":0.42,"CALCACRE":0.42,"DISTCODE":107,"TWPCODE":13,"LANDFMV":72343,"LANDLUV":0,"IMP_FMV":226676,"TOT_VAL":299019,"DEEDYEAR":2026,"SALE_AMT":0,"TAX_YEAR":2026,"ST":1525,"Shape.STArea()":18414.02347924968,"Shape.STLength()":679.9122354168258,"OBJECTID":52054,"PARCEL_ID":"163 012","OWNNAME":"KINETIC ABS NC LLC","TAXADD1":"4005 N RODNEY PARHAM RD","TAXADD2":"BENTON BLDG STE 300","CITY":"LITTLE ROCK","STATE":"AR","ZIPCODE":"72212-2442","OWN2":null,"TAX_DISTRICT":"LANDIS","TOWNSHIP":"CHINA GROVE","NEIGCLAS":"01329A","NEIGCODE":"01329A","EX_CODE":"E","DEEDBOOK":"1487","DEEDPAGE":"113","BOOKPREV":null,"PAGEPREV":null,"PLATPAGE":"6288","DATESOLD":1784073600000,"SALEINST":"QCD","QUALCODE":"C","LEG_DESC":"L7-10 & L15-16       .42AC","PARENT_PIN":" ","CKFLAG":null,"ST_SUFFIX":null,"PREDIR":"S","ST_NAME":"MAIN","ST_TYPE":"ST","SUFDIR":null,"UNIT":null,"PHYSADDR":"1525","PHYSSTREET":"MAIN","PROP_ADDRESS":"1525 S MAIN ST","PIN":"5626-19-51-3399","PLATBOOK":"9995","BALDUE":"N"}},{"type":"Feature","geometry":{"type":"Polygon","coordinates":[[[-80.41838439785627,35.571721828600765],[-80.41833270184493,35.57173206175952],[-80.41819680444155,35.57175896108358],[-80.4166552088264,35.572065402612395],[-80.41665669258647,35.572070497986296],[-80.41665674853077,35.57207069232402],[-80.41672945059491,35.5723204783426],[-80.41673302705365,35.57233268702144],[-80.41682111025509,35.57231520200046],[-80.41753746567828,35.57217275022247],[-80.41819415600541,35.572042239262466],[-80.41857794425242,35.57196620277165],[-80.41855813920849,35.571899457595734],[-80.41853900220227,35.57183485129608],[-80.41853829917137,35.571832712824346],[-80.41851856474473,35.5717659954383],[-80.41849875879754,35.57169919301609],[-80.41838439785627,35.571721828600765]]]},"properties":{"_clli":"GRQYNCXA","_parcel_id":"357 085","_county":"Rowan","_state":"NC","_source":"https://gis.rowancountync.gov/arcgis/rest/services/Public/RowanTaxParcels/MapServer/0","_acres_gis":"1.2988","_acres_stated":"1.3","DEEDACRE":0,"CALCACRE":1.3,"DISTCODE":113,"TWPCODE":4,"LANDFMV":34141,"LANDLUV":0,"IMP_FMV":363117,"TOT_VAL":397258,"DEEDYEAR":2026,"SALE_AMT":0,"TAX_YEAR":2026,"ST":8145,"Shape.STArea()":56437.38858371292,"Shape.STLength()":1328.7834941091994,"OBJECTID":37889,"PARCEL_ID":"357 085","OWNNAME":"KINETIC ABS NC LLC","TAXADD1":"4005 N RODNEY PARHAM RD","TAXADD2":"BENTON BLDG STE 300","CITY":"LITTLE ROCK","STATE":"AR","ZIPCODE":"72212-2442","OWN2":null,"TAX_DISTRICT":"ROCKWELL RURAL","TOWNSHIP":"GOLD HILL","NEIGCLAS":"00407A","NEIGCODE":"00407A","EX_CODE":"E","DEEDBOOK":"1487","DEEDPAGE":"113","BOOKPREV":null,"PAGEPREV":null,"PLATPAGE":"263","DATESOLD":1784073600000,"SALEINST":"QCD","QUALCODE":"C","LEG_DESC":"-","PARENT_PIN":" ","CKFLAG":null,"ST_SUFFIX":null,"PREDIR":null,"ST_NAME":"US 52","ST_TYPE":"HWY","SUFDIR":null,"UNIT":null,"PHYSADDR":"8145","PHYSSTREET":"US 52","PROP_ADDRESS":"8145 US 52 HWY","PIN":"5676-12-86-4162","PLATBOOK":"9995","BALDUE":"N"}},{"type":"Feature","geometry":{"type":"Polygon","coordinates":[[[-80.1987749758056,35.3541197233237],[-80.1987739467278,35.353812594507],[-80.198779445481,35.3535694087459],[-80.1991376659047,35.3535687050996],[-80.1991446367097,35.353472108348],[-80.1993522466468,35.3534749610895],[-80.1993517141346,35.3534957095673],[-80.1993512220597,35.3535191999577],[-80.1993502981491,35.3535418373062],[-80.1993493590435,35.3535634443768],[-80.1993479983124,35.3535848907523],[-80.1993474456203,35.3536042710207],[-80.1993464551453,35.3536226224464],[-80.1993458822307,35.3536406315471],[-80.1993448847646,35.353658299049],[-80.1993439055173,35.3536771669514],[-80.1993433191249,35.3536944896559],[-80.1993426411337,35.3537197018022],[-80.1993415338208,35.3537442314573],[-80.1993401806616,35.353766191597],[-80.199339637214,35.3537864263416],[-80.1993390845621,35.353805809568],[-80.1993381320858,35.3538267378497],[-80.1993367907651,35.3538497283],[-80.1993362651035,35.353871169156],[-80.1993357250483,35.3538914066144],[-80.1993343812542,35.3539142294725],[-80.1993338530795,35.3539354999891],[-80.1993329006439,35.3539564312288],[-80.1993323623796,35.3539770176408],[-80.1993317962384,35.3539957138365],[-80.1993304499294,35.3540183663549],[-80.1993303081296,35.3540374073218],[-80.1993297243217,35.3540549056477],[-80.1993292421423,35.3540795225388],[-80.1993283441196,35.3541041435458],[-80.1993281568173,35.3541200991741],[-80.1993268754651,35.3541473838535],[-80.1987749758056,35.3541197233237]]]},"properties":{"_clli":"ALBMNCXA","_parcel_id":"6.54801E+11","_county":"Stanly","_state":"NC","_source":"https://services6.arcgis.com/w1igg0Q14weqYXUh/arcgis/rest/services/parcel_records_base_2/FeatureServer/3","_acres_gis":"0.8423","_acres_stated":"0.8399","OBJECTID":22278,"TAXRECORD":28262,"Name1":"KINETIC ABS NC LLC","Name2":null,"Name3":null,"TaxPayerAddr1":"4005 NORTH RODNEY PARHAM RD","TaxPayerAddr2":null,"TaxPayerCity":"LITTLE ROCK","State":"AR","Zip":"72212","PIN":"654801255808","OLDPIN":"654809254821","PARENTPIN":" ","PINDATE":null,"TEMP":0,"OLDTEMP":"654809115","DeedAcres":0,"ACRES":0.8399,"Lots":2,"LandRateTypeDesc":"FRONT FOOTAGE","PhyStreetAddr":"250 N FIRST ST","DistrictCode":503,"DistrictDesc":"MUNICIPAL SER (ALBEMARLE)","TownshipCode":101,"TownshipDesc":"ALBEMARLE TWP","DescCode1":"E","Description1":"EXEMPT","NBHDCode":5007,"YearBuilt":1956,"FinishedArea":7367,"LandASVCurrent":114398,"TotalMajorASVCurrent":329796,"TotalMiscASVCurrent":24373,"TotalASVCurrent":468567,"PUVParcel":"No","LandFMVCurrent":114398,"LandLUVCurrent":114398,"TotalFMVCurrent":468567,"DateSold":1782259200000,"SaleAmount":0,"DeedBook":1923,"DeedPage":572,"PrevDeedBook":null,"PrevDeedPage":null,"PlatBook":null,"PlatPage":null,"OBJECTID_1":23722,"Shape__Area":36600.407958984375,"Shape__Length":813.976358905288}},{"type":"Feature","geometry":{"type":"Polygon","coordinates":[[[-80.1226538357541,35.2268319595931],[-80.1226735720969,35.226809690101],[-80.1224891295298,35.2267200435888],[-80.1226549388216,35.2265132648043],[-80.1229608594486,35.2266658968586],[-80.122773811608,35.2268902281485],[-80.1226538357541,35.2268319595931]]]},"properties":{"_clli":"NRWDNCXA","_parcel_id":"6.56301E+11","_county":"Stanly","_state":"NC","_source":"https://services6.arcgis.com/w1igg0Q14weqYXUh/arcgis/rest/services/parcel_records_base_2/FeatureServer/3","_acres_gis":"0.2279","_acres_stated":"0.62","OBJECTID":22012,"TAXRECORD":28172,"Name1":"KINETIC ABS NC LLC","Name2":null,"Name3":null,"TaxPayerAddr1":"4005 NORTH RODNEY PARHAM RD","TaxPayerAddr2":null,"TaxPayerCity":"LITTLE ROCK","State":"AR","Zip":"72212","PIN":"656301497322","OLDPIN":"656306497340","PARENTPIN":" ","PINDATE":1438560000000,"TEMP":null,"OLDTEMP":"656306013","DeedAcres":0,"ACRES":0.62,"Lots":3,"LandRateTypeDesc":"FRONT FOOTAGE","PhyStreetAddr":"238 N MAIN ST","DistrictCode":540,"DistrictDesc":"NORWOOD","TownshipCode":124,"TownshipDesc":"NORWOOD TWP","DescCode1":"E","Description1":"EXEMPT","NBHDCode":5401,"YearBuilt":1957,"FinishedArea":2244,"LandASVCurrent":18778,"TotalMajorASVCurrent":86196,"TotalMiscASVCurrent":1411,"TotalASVCurrent":106385,"PUVParcel":"No","LandFMVCurrent":18778,"LandLUVCurrent":18778,"TotalFMVCurrent":106385,"DateSold":1782259200000,"SaleAmount":0,"DeedBook":1923,"DeedPage":572,"PrevDeedBook":null,"PrevDeedPage":null,"PlatBook":null,"PlatPage":null,"OBJECTID_1":47441,"Shape__Area":9902.146362304688,"Shape__Length":411.60523571717346}},{"type":"Feature","geometry":{"type":"Polygon","coordinates":[[[-80.7829626149887,41.8654780356847],[-80.7829311939348,41.8654707324214],[-80.782994323803,41.8653634655557],[-80.7830123444269,41.8653170949148],[-80.7830765006426,41.8653312801225],[-80.7833717341243,41.8653966279129],[-80.7834280641104,41.8653772815544],[-80.7836035147093,41.865414326847],[-80.78366087173,41.8654264375875],[-80.7837851748053,41.8654812904627],[-80.783718726489,41.8656537790686],[-80.7830185829808,41.8654910455753],[-80.7829626149887,41.8654780356847]]]},"properties":{"_clli":"ASHTOHXA","_parcel_id":"05-000-00-403-00","_county":"Ashtabula","_state":"OH","_source":"https://services2.arcgis.com/MlJ0G8iWUyC7jAmu/arcgis/rest/services/OhioStatewidePacels_full_view/FeatureServer/0","_acres_gis":"0.3376","_acres_stated":"","OBJECTID":732412,"County":"Ashtabula","LocalParcelID":"05-000-00-403-00","StateParcelID":"39007-05-000-00-403-00","StateLUC":"489: Com-Custom Code","SitusAddressAll":"4616  PARK AVE   ","MailAddressAll":"N              .0000   136686  ","MailNumber":null,"MailStreetPrefix":null,"MailStreetName":null,"MailStreetSuffix":null,"MailUnitNumber":null,"MailCity":"","MailZip":"","MailState":"","LandArea":0.31,"LandArea_PY":0,"CurrentTo":1685422800000,"CAMADataSite":"https://auditor.ashtabulacounty.gov/PT/maps/map.aspx?UseSearch=no&pin=050000040300","GlobalID":"b795d322-510a-438c-9a58-10357c8f7782","Shape__Area":14718.855712890625,"Shape__Length":575.0602990862066}},{"type":"Feature","geometry":{"type":"Polygon","coordinates":[[[-80.9449197145751,41.8052752013097],[-80.9450722354167,41.8052727787639],[-80.9450705696986,41.8051978728391],[-80.9453279581607,41.8051934542334],[-80.9461798948926,41.8051788281521],[-80.9461798222625,41.8051792149954],[-80.9461449434689,41.8053724536139],[-80.9461433708294,41.8053811741251],[-80.9446607937393,41.8054000104079],[-80.9446609836643,41.8053911344353],[-80.9441861470976,41.8054075550033],[-80.9441864850886,41.8051884626132],[-80.9441864938654,41.8051813459523],[-80.9445781468604,41.805169274041],[-80.9445807491199,41.8052765981123],[-80.9447673873921,41.8052776207604],[-80.9449197145751,41.8052752013097]]]},"properties":{"_clli":"GENVOHXA","_parcel_id":"20-000-00-150-00","_county":"Ashtabula","_state":"OH","_source":"https://services2.arcgis.com/MlJ0G8iWUyC7jAmu/arcgis/rest/services/OhioStatewidePacels_full_view/FeatureServer/0","_acres_gis":"0.8339","_acres_stated":"","OBJECTID":751953,"County":"Ashtabula","LocalParcelID":"20-000-00-150-00","StateParcelID":"39007-20-000-00-150-00","StateLUC":"499: Com-Other","SitusAddressAll":"37  FOREST ST   ","MailAddressAll":"N              .0000   128054  ","MailNumber":null,"MailStreetPrefix":null,"MailStreetName":null,"MailStreetSuffix":null,"MailUnitNumber":null,"MailCity":"","MailZip":"","MailState":"","LandArea":0.87,"LandArea_PY":0,"CurrentTo":1685422800000,"CAMADataSite":"https://auditor.ashtabulacounty.gov/PT/maps/map.aspx?UseSearch=no&pin=200000015000","GlobalID":"b3d50da9-43b0-49ee-847c-3aa933963e2a","Shape__Area":36359.496337890625,"Shape__Length":1304.882533837595}},{"type":"Feature","geometry":{"type":"Polygon","coordinates":[[[-81.2199816704427,40.0592198350348],[-81.220557846344,40.0591242592504],[-81.2205337134493,40.059853524589],[-81.2199683015712,40.059944456469],[-81.2199816704427,40.0592198350348]]]},"properties":{"_clli":"FRVWOHXA","_parcel_id":"12-90007.000","_county":"Belmont","_state":"OH","_source":"https://services2.arcgis.com/MlJ0G8iWUyC7jAmu/arcgis/rest/services/OhioStatewidePacels_full_view/FeatureServer/0","_acres_gis":"0.9684","_acres_stated":"","OBJECTID":918873,"County":"Belmont","LocalParcelID":"12-90007.000","StateParcelID":"39013-12-90007.000","StateLUC":"830: Utl-Land and Improvement","SitusAddressAll":"32699 OLD NATIONAL RD  ","MailAddressAll":"% DUFF & PHELPS LLC\n PO BOX 2629 ADDISON 75001","MailNumber":null,"MailStreetPrefix":null,"MailStreetName":null,"MailStreetSuffix":null,"MailUnitNumber":null,"MailCity":"ADDISON","MailZip":"75001","MailState":"TX","LandArea":1,"LandArea_PY":0,"CurrentTo":1686789900000,"CAMADataSite":"https://gis.belcogis.com/portal/apps/webappviewer/index.html?id=a301ef5c48204d43a13851d112f4757a&find=12-90007.000","GlobalID":"b06192b7-faac-46d9-97f0-bbac5ec54235","Shape__Area":42133.800537109375,"Shape__Length":856.4504843033656}},{"type":"Feature","geometry":{"type":"Polygon","coordinates":[[[-80.7989285593423,39.8660348113953],[-80.798959324763,39.8658996124656],[-80.7991874071299,39.8659304321427],[-80.7991566421168,39.8660656320315],[-80.7989285593423,39.8660348113953]]]},"properties":{"_clli":"PWPNOHXA","_parcel_id":"53-90011.000","_county":"Belmont","_state":"OH","_source":"https://services2.arcgis.com/MlJ0G8iWUyC7jAmu/arcgis/rest/services/OhioStatewidePacels_full_view/FeatureServer/0","_acres_gis":"0.0747","_acres_stated":"","OBJECTID":928379,"County":"Belmont","LocalParcelID":"53-90011.000","StateParcelID":"39013-53-90011.000","StateLUC":"499: Com-Other","SitusAddressAll":"BEN AVE  ","MailAddressAll":"% DUFF & PHELPS LLC\n PO BOX 2629 ADDISON 75001","MailNumber":null,"MailStreetPrefix":null,"MailStreetName":null,"MailStreetSuffix":null,"MailUnitNumber":null,"MailCity":"ADDISON","MailZip":"75001","MailState":"TX","LandArea":0,"LandArea_PY":0,"CurrentTo":1686789900000,"CAMADataSite":"https://gis.belcogis.com/portal/apps/webappviewer/index.html?id=a301ef5c48204d43a13851d112f4757a&find=53-90011.000","GlobalID":"bee1191b-38e8-4646-95a3-68bf1bc5e6fb","Shape__Area":3250.0113525390625,"Shape__Length":230.00038323904084}},{"type":"Feature","geometry":{"type":"Polygon","coordinates":[[[-81.3405147972106,41.3854774317172],[-81.340854766383,41.3854726957798],[-81.3408675596948,41.385924689039],[-81.3405276112199,41.3859301812183],[-81.3405147972106,41.3854774317172]]]},"properties":{"_clli":"BNBGOHXA","_parcel_id":"02-601000","_county":"Geauga","_state":"OH","_source":"https://services2.arcgis.com/MlJ0G8iWUyC7jAmu/arcgis/rest/services/OhioStatewidePacels_full_view/FeatureServer/0","_acres_gis":"0.3535","_acres_stated":"","OBJECTID":2738502,"County":"Geauga","LocalParcelID":"02-601000","StateParcelID":"39055-02-601000","StateLUC":"499: Com-Other","SitusAddressAll":"8425  BAINBRIDGE RD   ","MailAddressAll":"10802  EXECUTIVE CENTER DR  LITTLE ROCK 72211","MailNumber":"10802","MailStreetPrefix":"","MailStreetName":"EXECUTIVE CENTER","MailStreetSuffix":"DR","MailUnitNumber":null,"MailCity":"LITTLE ROCK","MailZip":"72211","MailState":"AR","LandArea":0.25,"LandArea_PY":0,"CurrentTo":1690520400000,"CAMADataSite":"https://gcgis-apps.geauga.oh.gov/vertigisstudio/web/?app=6b75443a4f54426e8f91d4c07a44ca13&PID=02-601000","GlobalID":"1228fe44-4f38-4b64-8e31-c8cad09affa1","Shape__Area":15400.81005859375,"Shape__Length":516.6424385176878}},{"type":"Feature","geometry":{"type":"Polygon","coordinates":[[[-81.2019564851545,41.5811114731515],[-81.2022642395767,41.5811099534636],[-81.2022660966073,41.5813816447753],[-81.2019583409175,41.581383166267],[-81.2019564851545,41.5811114731515]]]},"properties":{"_clli":"CHRDOHXA","_parcel_id":"10-601300","_county":"Geauga","_state":"OH","_source":"https://services2.arcgis.com/MlJ0G8iWUyC7jAmu/arcgis/rest/services/OhioStatewidePacels_full_view/FeatureServer/0","_acres_gis":"0.1915","_acres_stated":"","OBJECTID":2748850,"County":"Geauga","LocalParcelID":"10-601300","StateParcelID":"39055-10-601300","StateLUC":"499: Com-Other","SitusAddressAll":"205 S HAMBDEN ST   ","MailAddressAll":"10802  EXECUTIVE CENTER DR  LITTLE ROCK 72211","MailNumber":"10802","MailStreetPrefix":"","MailStreetName":"EXECUTIVE CENTER","MailStreetSuffix":"DR","MailUnitNumber":null,"MailCity":"LITTLE ROCK","MailZip":"72211","MailState":"AR","LandArea":0.19,"LandArea_PY":0,"CurrentTo":1690520400000,"CAMADataSite":"https://gcgis-apps.geauga.oh.gov/vertigisstudio/web/?app=6b75443a4f54426e8f91d4c07a44ca13&PID=10-601300","GlobalID":"aec0ae63-6365-4967-a927-4dbc77238ffa","Shape__Area":8347.441650390625,"Shape__Length":366.6559651965496}},{"type":"Feature","geometry":{"type":"Polygon","coordinates":[[[-83.6101779347425,40.6477561494934],[-83.6101780585941,40.6477532030424],[-83.6104218610811,40.6477603209337],[-83.6104088527883,40.6480297095457],[-83.6104088358831,40.6480300536665],[-83.6104087836032,40.6480311355668],[-83.6104044927457,40.6481199765867],[-83.6103999921386,40.648119826052],[-83.6101629528622,40.6481119073213],[-83.6101779347425,40.6477561494934]]]},"properties":{"_clli":"KNTNOHXA","_parcel_id":"3.606E+11","_county":"Hardin","_state":"OH","_source":"https://services2.arcgis.com/MlJ0G8iWUyC7jAmu/arcgis/rest/services/OhioStatewidePacels_full_view/FeatureServer/0","_acres_gis":"0.2028","_acres_stated":"","OBJECTID":3303206,"County":"Hardin","LocalParcelID":"360600010000","StateParcelID":"39065-360600010000","StateLUC":"499: Com-Other","SitusAddressAll":"  ","MailAddressAll":"225 W COLUMBUS KENTON OH -3326","MailNumber":null,"MailStreetPrefix":null,"MailStreetName":null,"MailStreetSuffix":null,"MailUnitNumber":null,"MailCity":"KENTON OH","MailZip":"-3326","MailState":"","LandArea":0,"LandArea_PY":0,"CurrentTo":1692687900000,"CAMADataSite":"https://beacon.schneidercorp.com/Application.aspx?AppID=1069&LayerID=25768&PageTypeID=4&PageID=10449&Q=1862449481&KeyValue=360600010000","GlobalID":"e18742e8-3583-4fd0-ab38-b8f0b2234aa4","Shape__Area":8827.756103515625,"Shape__Length":396.74017429653793}},{"type":"Feature","geometry":{"type":"Polygon","coordinates":[[[-81.0495644767627,41.8003325140954],[-81.0486503729626,41.8003553032337],[-81.0485611354571,41.8003575281897],[-81.0485244705714,41.8003584421154],[-81.048521608482,41.8000839435613],[-81.0485582732188,41.8000830296362],[-81.0486545324181,41.8000806309265],[-81.0495634378682,41.800057969148],[-81.0495644767627,41.8003325140954]]]},"properties":{"_clli":"MDSNOHXA","_parcel_id":"01B8880006000","_county":"Lake","_state":"OH","_source":"https://services2.arcgis.com/MlJ0G8iWUyC7jAmu/arcgis/rest/services/OhioStatewidePacels_full_view/FeatureServer/0","_acres_gis":"0.6524","_acres_stated":"","OBJECTID":3607174,"County":"Lake","LocalParcelID":"01B8880006000","StateParcelID":"39085-01B8880006000","StateLUC":"480: Com-Warehouse","SitusAddressAll":"2745  HUBBARD RD  MADISON 44057","MailAddressAll":"10802 EXECUTIVE CENTER DR | SUITE 300 LITTLE ROCK 72211","MailNumber":null,"MailStreetPrefix":null,"MailStreetName":null,"MailStreetSuffix":null,"MailUnitNumber":null,"MailCity":"LITTLE ROCK","MailZip":"72211","MailState":"AR","LandArea":0,"LandArea_PY":0,"CurrentTo":1690899720000,"CAMADataSite":"https://auditor.lakecountyohio.gov/Datalets/Datalet.aspx?UseSearch=no&pin=01B8880006000","GlobalID":"853a6f7f-b608-4c38-af98-2955cfddc68d","Shape__Area":28444.921875,"Shape__Length":768.679545476197}},{"type":"Feature","geometry":{"type":"Polygon","coordinates":[[[-82.5190577844286,40.0676624333355],[-82.5188226537629,40.067648697404],[-82.5188530730603,40.0673283776447],[-82.5190882026465,40.067342113517],[-82.5190577844286,40.0676624333355]]]},"properties":{"_clli":"GRVIOHXA","_parcel_id":"02005675401000","_county":"Licking","_state":"OH","_source":"https://services2.arcgis.com/MlJ0G8iWUyC7jAmu/arcgis/rest/services/OhioStatewidePacels_full_view/FeatureServer/0","_acres_gis":"0.1775","_acres_stated":"","OBJECTID":3772220,"County":"Licking","LocalParcelID":"02005675401000","StateParcelID":"39089-02005675401000","StateLUC":"830: Utl-Land and Improvement","SitusAddressAll":"131 E BROADWAY GRANVILLE, OH 43023 GRANVILLE 43023","MailAddressAll":"2101  RIVERFRONT DR #A   LITTLE ROCK 72202","MailNumber":"2101","MailStreetPrefix":"","MailStreetName":"RIVERFRONT DR #A","MailStreetSuffix":"","MailUnitNumber":null,"MailCity":"LITTLE ROCK","MailZip":"72202","MailState":"AR","LandArea":0.17,"LandArea_PY":0,"CurrentTo":1690866000000,"CAMADataSite":"https://www.lickingcountyohio.us/?p=020-056754-01.000","GlobalID":"74587421-3dcd-4c6d-be02-03594efe9b9a","Shape__Area":7722.0203857421875,"Shape__Length":366.0012984036885}},{"type":"Feature","geometry":{"type":"Polygon","coordinates":[[[-82.4416898704959,40.0414280332417],[-82.4417244141854,40.0409976657152],[-82.4418670027649,40.0410044170997],[-82.4418348238283,40.0414356468228],[-82.4416898704959,40.0414280332417]]]},"properties":{"_clli":"HETHOHXA","_parcel_id":"05428208405000","_county":"Licking","_state":"OH","_source":"https://services2.arcgis.com/MlJ0G8iWUyC7jAmu/arcgis/rest/services/OhioStatewidePacels_full_view/FeatureServer/0","_acres_gis":"0.1458","_acres_stated":"","OBJECTID":3820221,"County":"Licking","LocalParcelID":"05428208405000","StateParcelID":"39089-05428208405000","StateLUC":"830: Utl-Land and Improvement","SitusAddressAll":"HARRIS AVE NEWARK, OH 43055 NEWARK 43055","MailAddressAll":"2101  RIVERFRONT DR #A   LITTLE ROCK 72202","MailNumber":"2101","MailStreetPrefix":"","MailStreetName":"RIVERFRONT DR #A","MailStreetSuffix":"","MailUnitNumber":null,"MailCity":"LITTLE ROCK","MailZip":"72202","MailState":"AR","LandArea":0.14,"LandArea_PY":0,"CurrentTo":1690866000000,"CAMADataSite":"https://www.lickingcountyohio.us/?p=054-282084-05.000","GlobalID":"bd815fc4-5302-4687-96cd-30fba8ca0f13","Shape__Area":6341.8916015625,"Shape__Length":395.10742788650595}},{"type":"Feature","geometry":{"type":"Polygon","coordinates":[[[-82.4051574288433,40.0594886841313],[-82.4044852406267,40.059674822835],[-82.4044111390816,40.0595202707409],[-82.4050833259996,40.0593341324501],[-82.4051574288433,40.0594886841313]]]},"properties":{"_clli":"NWRKOHXA","_parcel_id":"05428208401000","_county":"Licking","_state":"OH","_source":"https://services2.arcgis.com/MlJ0G8iWUyC7jAmu/arcgis/rest/services/OhioStatewidePacels_full_view/FeatureServer/0","_acres_gis":"0.2758","_acres_stated":"","OBJECTID":3825312,"County":"Licking","LocalParcelID":"05428208401000","StateParcelID":"39089-05428208401000","StateLUC":"830: Utl-Land and Improvement","SitusAddressAll":"66 N 4TH ST NEWARK, OH 43055 NEWARK 43055","MailAddressAll":"2101  RIVERFRONT DR #A   LITTLE ROCK 72202","MailNumber":"2101","MailStreetPrefix":"","MailStreetName":"RIVERFRONT DR #A","MailStreetSuffix":"","MailUnitNumber":null,"MailCity":"LITTLE ROCK","MailZip":"72202","MailState":"AR","LandArea":0.27,"LandArea_PY":0,"CurrentTo":1690866000000,"CAMADataSite":"https://www.lickingcountyohio.us/?p=054-282084-01.000","GlobalID":"a0b16bcc-0db9-4f4a-a86a-bac5a5bd2db5","Shape__Area":12000.291015625,"Shape__Length":520.012978488355}},{"type":"Feature","geometry":{"type":"Polygon","coordinates":[[[-82.4270048505289,40.0865412505188],[-82.4273256977208,40.0865586434926],[-82.4272788467948,40.0870514391632],[-82.426957991405,40.0870341100036],[-82.4270048505289,40.0865412505188]]]},"properties":{"_clli":"NWRKOHXB","_parcel_id":"09629514601000","_county":"Licking","_state":"OH","_source":"https://services2.arcgis.com/MlJ0G8iWUyC7jAmu/arcgis/rest/services/OhioStatewidePacels_full_view/FeatureServer/0","_acres_gis":"0.3724","_acres_stated":"","OBJECTID":3853656,"County":"Licking","LocalParcelID":"09629514601000","StateParcelID":"39089-09629514601000","StateLUC":"830: Utl-Land and Improvement","SitusAddressAll":"  ","MailAddressAll":"2101  RIVERFRONT DR #A   LITTLE ROCK 72202","MailNumber":"2101","MailStreetPrefix":"","MailStreetName":"RIVERFRONT DR #A","MailStreetSuffix":"","MailUnitNumber":null,"MailCity":"LITTLE ROCK","MailZip":"72202","MailState":"AR","LandArea":0.41,"LandArea_PY":0,"CurrentTo":1690866000000,"CAMADataSite":"https://www.lickingcountyohio.us/?p=096-295146-01.000","GlobalID":"35d8f949-659e-413d-987e-0171ac4c819a","Shape__Area":16201.151245117188,"Shape__Length":540.026337587661}},{"type":"Feature","geometry":{"type":"Polygon","coordinates":[[[-82.4274061337164,40.0576309632915],[-82.4269114799604,40.057608094672],[-82.4269215390312,40.0574960951369],[-82.4274164782774,40.0575175454358],[-82.4274061337164,40.0576309632915]]]},"properties":{"_clli":"NWRKOHXC","_parcel_id":"05428208406000","_county":"Licking","_state":"OH","_source":"https://services2.arcgis.com/MlJ0G8iWUyC7jAmu/arcgis/rest/services/OhioStatewidePacels_full_view/FeatureServer/0","_acres_gis":"0.1312","_acres_stated":"","OBJECTID":3828251,"County":"Licking","LocalParcelID":"05428208406000","StateParcelID":"39089-05428208406000","StateLUC":"830: Utl-Land and Improvement","SitusAddressAll":"685 W CHURCH ST NEWARK, OH 43055 NEWARK 43055","MailAddressAll":"2101  RIVERFRONT DR #A   LITTLE ROCK 72202","MailNumber":"2101","MailStreetPrefix":"","MailStreetName":"RIVERFRONT DR #A","MailStreetSuffix":"","MailUnitNumber":null,"MailCity":"LITTLE ROCK","MailZip":"72202","MailState":"AR","LandArea":0.39,"LandArea_PY":0,"CurrentTo":1690866000000,"CAMADataSite":"https://www.lickingcountyohio.us/?p=054-282084-06.000","GlobalID":"2c6aa0b1-43b9-4a82-babf-5a6aa62fa500","Shape__Area":5710.02197265625,"Shape__Length":359.8023156843326}},{"type":"Feature","geometry":{"type":"Polygon","coordinates":[[[-82.4047859919642,40.013722344387],[-82.4044427271621,40.0136976893447],[-82.4044188899017,40.0136903677038],[-82.4044508760102,40.0134319701754],[-82.4044731875455,40.0132516072479],[-82.4048409362497,40.013279274816],[-82.4047859919642,40.013722344387]]]},"properties":{"_clli":"NWRKOHXD","_parcel_id":"04113653601000","_county":"Licking","_state":"OH","_source":"https://services2.arcgis.com/MlJ0G8iWUyC7jAmu/arcgis/rest/services/OhioStatewidePacels_full_view/FeatureServer/0","_acres_gis":"0.386","_acres_stated":"","OBJECTID":3793443,"County":"Licking","LocalParcelID":"04113653601000","StateParcelID":"39089-04113653601000","StateLUC":"830: Utl-Land and Improvement","SitusAddressAll":"  ","MailAddressAll":"PO BOX 260888   PLANO 75026","MailNumber":"","MailStreetPrefix":"","MailStreetName":"PO BOX 260888","MailStreetSuffix":"","MailUnitNumber":null,"MailCity":"PLANO","MailZip":"75026","MailState":"TX","LandArea":0.52,"LandArea_PY":0,"CurrentTo":1690866000000,"CAMADataSite":"https://www.lickingcountyohio.us/?p=041-136536-01.000","GlobalID":"87bd41a1-436f-496f-ac57-e5bf567466c8","Shape__Area":16794.890502929688,"Shape__Length":529.952109252605}},{"type":"Feature","geometry":{"type":"Polygon","coordinates":[[[-82.1099695526952,41.3655347080589],[-82.1102099411735,41.3655386740082],[-82.1101970155282,41.36599176432],[-82.1099566240358,41.3659880449226],[-82.1097161955336,41.3659843258225],[-82.1097291647147,41.3655306597353],[-82.1099695526952,41.3655347080589]]]},"properties":{"_clli":"ELYROHXA","_parcel_id":"0626055000001","_county":"Lorain","_state":"OH","_source":"https://services2.arcgis.com/MlJ0G8iWUyC7jAmu/arcgis/rest/services/OhioStatewidePacels_full_view/FeatureServer/0","_acres_gis":"0.5012","_acres_stated":"","OBJECTID":3996054,"County":"Lorain","LocalParcelID":"0626055000001","StateParcelID":"39093-0626055000001","StateLUC":"447: Com-Office","SitusAddressAll":"  ","MailAddressAll":"10802 EXECUTIVE CENTER DR | BENTON BLDG STE 300 ADDISON 75001","MailNumber":null,"MailStreetPrefix":null,"MailStreetName":null,"MailStreetSuffix":null,"MailUnitNumber":null,"MailCity":"ADDISON","MailZip":"75001","MailState":"TX","LandArea":0,"LandArea_PY":0,"CurrentTo":1683573840000,"CAMADataSite":"https://experience.arcgis.com/experience/96c021db7a504796bf5dce62b3578cd6/#data_s=where%3A2c7599a8d3984dada2a4e05f931f9194-19bb3509e3c-layer-47-1%3APIN%3D%270626055000001%27&zoom_to_selection=true","GlobalID":"8d0af30a-839a-4a8a-823c-e60eeb5358eb","Shape__Area":21835.371337890625,"Shape__Length":594.8133275150709}},{"type":"Feature","geometry":{"type":"Polygon","coordinates":[[[-81.5370353312684,41.3146665200152],[-81.5370921434405,41.3146670794099],[-81.5370882268421,41.3150747962519],[-81.5370332019544,41.3150742782294],[-81.5369057164792,41.3150730775971],[-81.5369154025451,41.3146653396473],[-81.5370353312684,41.3146665200152]]]},"properties":{"_clli":"NRFDOHXA","_parcel_id":"4002461","_county":"Summit","_state":"OH","_source":"https://services2.arcgis.com/MlJ0G8iWUyC7jAmu/arcgis/rest/services/OhioStatewidePacels_full_view/FeatureServer/0","_acres_gis":"0.1685","_acres_stated":"","OBJECTID":160254,"County":"Summit","LocalParcelID":"4002461","StateParcelID":"39153-4002461","StateLUC":null,"SitusAddressAll":null,"MailAddressAll":null,"MailNumber":null,"MailStreetPrefix":null,"MailStreetName":null,"MailStreetSuffix":null,"MailUnitNumber":null,"MailCity":null,"MailZip":null,"MailState":null,"LandArea":null,"LandArea_PY":null,"CurrentTo":null,"CAMADataSite":"https://summitmaps.summitoh.net/ParcelViewer/?esearch=4002461&slayer=0","GlobalID":"046aa87b-35c0-404d-9ee5-e470835b7c3d","Shape__Area":7339.61767578125,"Shape__Length":396.05505264536686}},{"type":"Feature","geometry":{"type":"Polygon","coordinates":[[[-81.6558020811488,41.2391863753357],[-81.6558066882223,41.2396009379781],[-81.6556423230307,41.2396017760424],[-81.6556270831382,41.2391897250756],[-81.6558020811488,41.2391863753357]]]},"properties":{"_clli":"RCFDOHXA","_parcel_id":"5001510","_county":"Summit","_state":"OH","_source":"https://services2.arcgis.com/MlJ0G8iWUyC7jAmu/arcgis/rest/services/OhioStatewidePacels_full_view/FeatureServer/0","_acres_gis":"0.1615","_acres_stated":"","OBJECTID":355552,"County":"Summit","LocalParcelID":"5001510","StateParcelID":"39153-5001510","StateLUC":null,"SitusAddressAll":null,"MailAddressAll":null,"MailNumber":null,"MailStreetPrefix":null,"MailStreetName":null,"MailStreetSuffix":null,"MailUnitNumber":null,"MailCity":null,"MailZip":null,"MailState":null,"LandArea":null,"LandArea_PY":null,"CurrentTo":null,"CAMADataSite":"https://summitmaps.summitoh.net/ParcelViewer/?esearch=5001510&slayer=0","GlobalID":"2d9c9020-ca22-4423-be5c-5c9a455ad76c","Shape__Area":7036.516845703125,"Shape__Length":394.78748014068196}},{"type":"Feature","geometry":{"type":"Polygon","coordinates":[[[-81.4420095354574,41.3113401824179],[-81.4420064660775,41.3108481525695],[-81.4424254886899,41.3108477055829],[-81.4424268567782,41.3112082414996],[-81.4424273450865,41.3113368698111],[-81.4424274487282,41.3113643160073],[-81.4420097069751,41.3113676283156],[-81.4420095354574,41.3113401824179]]]},"properties":{"_clli":"TWBGOHIR","_parcel_id":"6406505","_county":"Summit","_state":"OH","_source":"https://services2.arcgis.com/MlJ0G8iWUyC7jAmu/arcgis/rest/services/OhioStatewidePacels_full_view/FeatureServer/0","_acres_gis":"0.4985","_acres_stated":"","OBJECTID":81287,"County":"Summit","LocalParcelID":"6406505","StateParcelID":"39153-6406505","StateLUC":null,"SitusAddressAll":null,"MailAddressAll":null,"MailNumber":null,"MailStreetPrefix":null,"MailStreetName":null,"MailStreetSuffix":null,"MailUnitNumber":null,"MailCity":null,"MailZip":null,"MailState":null,"LandArea":null,"LandArea_PY":null,"CurrentTo":null,"CAMADataSite":"https://summitmaps.summitoh.net/ParcelViewer/?esearch=6406505&slayer=0","GlobalID":"fe7a5f02-1300-4abd-9692-838fdcc6f7f1","Shape__Area":21718.8740234375,"Shape__Length":607.7190948371282}},{"type":"Feature","geometry":{"type":"Polygon","coordinates":[[[-81.4420095354574,41.3113401824179],[-81.4420064660775,41.3108481525695],[-81.4424254886899,41.3108477055829],[-81.4424268567782,41.3112082414996],[-81.4424273450865,41.3113368698111],[-81.4424274487282,41.3113643160073],[-81.4420097069751,41.3113676283156],[-81.4420095354574,41.3113401824179]]]},"properties":{"_clli":"TWBGOHXA","_parcel_id":"6406505","_county":"Summit","_state":"OH","_source":"https://services2.arcgis.com/MlJ0G8iWUyC7jAmu/arcgis/rest/services/OhioStatewidePacels_full_view/FeatureServer/0","_acres_gis":"0.4985","_acres_stated":"","OBJECTID":81287,"County":"Summit","LocalParcelID":"6406505","StateParcelID":"39153-6406505","StateLUC":null,"SitusAddressAll":null,"MailAddressAll":null,"MailNumber":null,"MailStreetPrefix":null,"MailStreetName":null,"MailStreetSuffix":null,"MailUnitNumber":null,"MailCity":null,"MailZip":null,"MailState":null,"LandArea":null,"LandArea_PY":null,"CurrentTo":null,"CAMADataSite":"https://summitmaps.summitoh.net/ParcelViewer/?esearch=6406505&slayer=0","GlobalID":"fe7a5f02-1300-4abd-9692-838fdcc6f7f1","Shape__Area":21718.8740234375,"Shape__Length":607.7190948371282}}]}