<?xml version="1.0" encoding="UTF-8"?>
<kml xmlns="http://www.opengis.net/kml/2.2" xmlns:gx="http://www.google.com/kml/ext/2.2" xmlns:kml="http://www.opengis.net/kml/2.2" xmlns:atom="http://www.w3.org/2005/Atom">
<Document>
	<name>TBDI Example Site 1.kmz</name>
	<Style id="inline">
		<LineStyle>
			<color>ff0000ff</color>
			<width>5</width>
		</LineStyle>
		<PolyStyle>
			<fill>0</fill>
		</PolyStyle>
	</Style>
	<StyleMap id="inline0">
		<Pair>
			<key>normal</key>
			<styleUrl>#inline1</styleUrl>
		</Pair>
		<Pair>
			<key>highlight</key>
			<styleUrl>#inline</styleUrl>
		</Pair>
	</StyleMap>
	<Style id="inline1">
		<LineStyle>
			<color>ff0000ff</color>
			<width>5</width>
		</LineStyle>
		<PolyStyle>
			<fill>0</fill>
		</PolyStyle>
	</Style>
	<StyleMap id="m_ylw-pushpin">
		<Pair>
			<key>normal</key>
			<styleUrl>#s_ylw-pushpin</styleUrl>
		</Pair>
		<Pair>
			<key>highlight</key>
			<styleUrl>#s_ylw-pushpin_hl</styleUrl>
		</Pair>
	</StyleMap>
	<Style id="s_ylw-pushpin">
		<IconStyle>
			<scale>1.1</scale>
			<Icon>
				<href>http://maps.google.com/mapfiles/kml/pushpin/ylw-pushpin.png</href>
			</Icon>
			<hotSpot x="20" y="2" xunits="pixels" yunits="pixels"/>
		</IconStyle>
	</Style>
	<Style id="s_ylw-pushpin_hl">
		<IconStyle>
			<scale>1.3</scale>
			<Icon>
				<href>http://maps.google.com/mapfiles/kml/pushpin/ylw-pushpin.png</href>
			</Icon>
			<hotSpot x="20" y="2" xunits="pixels" yunits="pixels"/>
		</IconStyle>
	</Style>
	<Folder>
		<name>TBDI Example Site</name>
		<open>1</open>
		<Placemark>
			<name>TBDI Example Site 596 Acres</name>
			<styleUrl>#inline0</styleUrl>
			<Polygon>
				<tessellate>1</tessellate>
				<outerBoundaryIs>
					<LinearRing>
						<coordinates>
							-104.9026502467046,39.82714076328588,0 -104.902406617867,39.82713379282902,0 -104.9022645053281,39.82706080382033,0 -104.9022302108437,39.82683762648108,0 -104.9021122038463,39.82667269709574,0 -104.90189211329,39.8265873391389,0 -104.9010485500744,39.82657925103663,0 -104.8960460373822,39.82657288531789,0 -104.8958523282767,39.82658512517651,0 -104.8956802869043,39.82671896619237,0 -104.8953166809315,39.82710890951407,0 -104.8950471728825,39.82720258428146,0 -104.8845420863951,39.82719517758653,0 -104.8846679371811,39.81298200055048,0 -104.8975912416665,39.81301820629958,0 -104.9029468391913,39.81309088728466,0 -104.9026502467046,39.82714076328588,0 
						</coordinates>
					</LinearRing>
				</outerBoundaryIs>
			</Polygon>
		</Placemark>
		<Placemark>
			<name>TBDI Example Site 1</name>
			<LookAt>
				<longitude>-104.8909336579785</longitude>
				<latitude>39.82056465751765</latitude>
				<altitude>0</altitude>
				<heading>-1.480548204221267e-12</heading>
				<tilt>1.731429663685383</tilt>
				<range>2346.437687751422</range>
				<gx:altitudeMode>relativeToSeaFloor</gx:altitudeMode>
			</LookAt>
			<styleUrl>#m_ylw-pushpin</styleUrl>
			<Point>
				<gx:drawOrder>1</gx:drawOrder>
				<coordinates>-104.8951064793614,39.82012581017258,0</coordinates>
			</Point>
		</Placemark>
		<atom:link rel="app" href="https://www.google.com/earth/about/versions/#earth-pro" title="Google Earth Pro 7.3.7.1094"></atom:link>
	</Folder>
</Document>
</kml>
